0 DOVE 3 0711
1 81809U FPP2     16090.25001157  .00000000  00000+0  10064-3 0    01
2 81809 097.6779 118.6174 0147723 001.1018 061.8857 14.59995622    03
0 FLOCK 1C-1 0903
1 82307U FPP2     16090.25001157  .00000000  00000+0  68110-4 0    01
2 82307 097.9398 356.3851 0012252 330.0588 358.0398 14.88020323    04
0 FLOCK 1C-2 0904
1 82308U FPP2     16090.25001157  .00000000  00000+0  54612-4 0    04
2 82308 097.9418 356.2959 0013362 323.6233 250.0004 14.87961992    04
0 FLOCK 1C-3 0905
1 82309U FPP2     16090.25001157  .00000000  00000+0  38569-4 0    08
2 82309 097.9448 356.3860 0011911 313.2988 254.6540 14.87828433    07
0 FLOCK 1C-4 0906
1 82310U FPP2     16090.25001157  .00000000  00000+0  51797-4 0    08
2 82310 097.9411 356.3231 0013788 322.2737 275.3136 14.87942266    09
0 FLOCK 1C-5 0907
1 82311U FPP2     16090.25001157  .00000000  00000+0  42900-4 0    05
2 82311 097.9425 356.4493 0013766 317.1674 256.9598 14.88131799    04
0 FLOCK 1C-6 0908
1 82312U FPP2     16090.25001157  .00000000  00000+0  40691-4 0    01
2 82312 097.9456 356.5666 0011492 319.1615 311.8656 14.88152618    02
0 FLOCK 1C-7 0909
1 82313U FPP2     16090.25001157  .00000000  00000+0  12921-3 0    06
2 82313 097.9419 356.4868 0011383 330.0285 238.1595 14.88392866    03
0 FLOCK 1C-8 090A
1 82314U JSPOC2   16089.67801955  .00001409  00000+0  15273-3 0    02
2 82314 097.9414 356.5735 0012863 310.8694 049.1409 14.89764701    03
0 FLOCK 1C-9 090B
1 82315U FPP2     16090.25001157  .00000000  00000+0  46421-4 0    01
2 82315 097.9452 356.4803 0011088 316.2045 240.6623 14.88018799    03
0 FLOCK 1C-10 090C
1 82316U FPP2     16090.25001157  .00000000  00000+0  63267-4 0    09
2 82316 097.9386 356.3027 0012470 332.4493 358.3106 14.87868233    08
0 FLOCK 1C-11 090D
1 82317U JSPOC2   16089.74076586  .00001386  00000+0  15306-3 0    08
2 82317 097.9404 356.1760 0011950 321.1561 038.8797 14.89062977    04
0 FLOCK 1E-5 0B07
1 82823U FPP2     16090.25001157  .00000000  00000+0  45364-3 0    09
2 82823 051.6275 072.0371 0005703 094.9589 242.3374 15.78096625    04
0 FLOCK 1E-10 0B09
1 82825U FPP2     16090.25001157  .00000000  00000+0  42019-3 0    05
2 82825 051.6308 072.7454 0003121 075.7358 287.5561 15.77268145    01
0 FLOCK 1E-12 0B0A
1 82826U FPP2     16090.25001157  .00000000  00000+0  36537-3 0    04
2 82826 051.6335 072.7909 0005437 084.9980 255.7973 15.77364836    00
0 FLOCK 1E-6 0B0B
1 82827U FPP2     16090.25001157  .00000000  00000+0  44884-3 0    09
2 82827 051.6349 071.0432 0005592 088.1874 358.1677 15.79448998    02
0 FLOCK 1E-8 0B0D
1 82829U FPP2     16090.25001157  .00000000  00000+0  42407-3 0    00
2 82829 051.6339 070.3699 0004163 096.1228 319.9481 15.81200237    08
0 FLOCK 1E-7 0B0E
1 82830U FPP2     16090.25001157  .00000000  00000+0  36298-3 0    03
2 82830 051.6333 072.7095 0003524 087.3318 290.3619 15.77050081    02
0 FLOCK 1E-14 0B0F
1 82831U FPP2     16090.25001157  .00000000  00000+0  37778-3 0    08
2 82831 051.6368 071.7863 0004122 086.9720 020.8323 15.78243524    05
0 FLOCK 1E-1 0B1A
1 82842U FPP2     16090.25001157  .00000000  00000+0  43544-3 0    08
2 82842 051.6276 070.0861 0005766 064.9539 095.9115 15.84097958    01
0 FLOCK 1E-11 0B1E
1 82846U FPP2     16090.25001157  .00000000  00000+0  35105-3 0    06
2 82846 051.6280 069.6810 0005531 087.7294 280.5034 15.79136676    06
0 FLOCK 1E-3 0C03
1 83075U FPP2     16090.25001157  .00000000  00000+0  46007-3 0    04
2 83075 051.6296 067.3324 0007085 073.1808 327.2494 15.84442314    03
0 FLOCK 1E-4 0C06
1 83078U FPP2     16090.25001157  .00000000  00000+0  59497-3 0    04
2 83078 051.6360 071.3952 0006468 069.3689 214.4987 15.80706698    06
0 FLOCK 1E-13 0C07
1 83079U FPP2     16090.25001157  .00000000  00000+0  34956-3 0    08
2 83079 051.6322 072.1058 0002296 119.9913 191.9325 15.76804640    04
0 FLOCK 2E-9 0C13
1 83091U JSPOC2   16090.14667758  .00004140  00000+0  69340-4 0    00
2 83091 051.6426 092.2463 0002373 015.8435 069.4136 15.54290862    05
0 FLOCK 2E-7 0C14
1 83092U JSPOC2   16090.14667758  .00004140  00000+0  69340-4 0    01
2 83092 051.6426 092.2463 0002373 015.8435 069.4136 15.54290862    06
0 FLOCK 2B-2 0C18
1 83096U FPP2     16090.25001157  .00000000  00000+0  39457-3 0    08
2 83096 051.6363 080.6711 0005037 000.0072 203.0252 15.71415109    07
0 FLOCK 2E-5 0C24
1 83108U JSPOC2   16090.14667758  .00004140  00000+0  69340-4 0    09
2 83108 051.6426 092.2463 0002373 015.8435 069.4136 15.54290862    04
0 FLOCK 2E-6 0C2B
1 83115U JSPOC2   16090.14667758  .00004140  00000+0  69340-4 0    07
2 83115 051.6426 092.2463 0002373 015.8435 069.4136 15.54290862    02
0 FLOCK 2E-3 0C37
1 83127U JSPOC2   16090.14667758  .00004140  00000+0  69340-4 0    00
2 83127 051.6426 092.2463 0002373 015.8435 069.4136 15.54290862    05
0 FLOCK 2E-12 0C41
1 83137U JSPOC2   16090.14667758  .00004140  00000+0  69340-4 0    01
2 83137 051.6426 092.2463 0002373 015.8435 069.4136 15.54290862    06
0 FLOCK 2E-1 0C43
1 83139U JSPOC2   16090.14667758  .00004140  00000+0  69340-4 0    03
2 83139 051.6426 092.2463 0002373 015.8435 069.4136 15.54290862    08
0 FLOCK 2B-14 0C47
1 83143U FPP2     16090.25001157  .00000000  00000+0  42432-3 0    08
2 83143 051.6361 079.9554 0005024 341.1043 201.5477 15.72385022    00
0 FLOCK 2B-3 0C53
1 83155U FPP2     16090.25001157  .00000000  00000+0  36477-3 0    03
2 83155 051.6355 081.3325 0003470 009.1182 237.3679 15.70468803    05
0 FLOCK 2B-8 0C55
1 83157U FPP2     16090.25001157  .00000000  00000+0  49125-3 0    09
2 83157 051.6341 077.4167 0001768 108.1627 202.2157 15.79152085    07
0 FLOCK 2E-11 0C60
1 83168U JSPOC2   16090.14667758  .00004140  00000+0  69340-4 0    05
2 83168 051.6426 092.2463 0002373 015.8435 069.4136 15.54290862    00
0 FLOCK 2B-10 0C64
1 83172U FPP2     16090.25001157  .00000000  00000+0  35460-3 0    03
2 83172 051.6360 081.1654 0005438 334.4549 354.2902 15.70364611    00
0 FLOCK 2B-7 0C66
1 83174U FPP2     16090.25001157  .00000000  00000+0  35288-3 0    03
2 83174 051.6337 080.2328 0005244 347.2103 064.2295 15.72002233    01
0 FLOCK 2B-9 0C68
1 83176U FPP2     16090.25001157  .00000000  00000+0  33787-3 0    07
2 83176 051.6382 081.2621 0006434 346.6932 294.1995 15.70378514    02
0 FLOCK 2B-6 0C69
1 83177U FPP2     16090.25001157  .00000000  00000+0  49204-3 0    09
2 83177 051.6334 081.4255 0004295 354.9915 196.9334 15.71862883    05
0 FLOCK 2B-1 0C70
1 83184U FPP2     16090.25001157  .00000000  00000+0  39789-3 0    04
2 83184 051.6366 080.7446 0005085 008.5427 164.3325 15.71447816    04
0 FLOCK 2B-4 0C72
1 83186U FPP2     16090.25001157  .00000000  00000+0  42333-3 0    05
2 83186 051.6380 081.5360 0002890 006.4595 143.5241 15.70105032    06
0 FLOCK 2B-5 0C73
1 83187U FPP2     16090.25001157  .00000000  00000+0  37974-3 0    01
2 83187 051.6366 080.7626 0005004 322.2319 202.4775 15.71342258    01
0 FLOCK 2B-13 0C74
1 83188U FPP2     16090.25001157  .00000000  00000+0  37360-3 0    01
2 83188 051.6395 081.4605 0005935 329.0528 225.0747 15.69971857    09
0 FLOCK 2E-2 0C75
1 83189U JSPOC2   16090.14667758  .00004140  00000+0  69340-4 0    08
2 83189 051.6426 092.2463 0002373 015.8435 069.4136 15.54290862    03
0 FLOCK 2E-4 0C78
1 83192U JSPOC2   16090.14667758  .00004140  00000+0  69340-4 0    02
2 83192 051.6426 092.2463 0002373 015.8435 069.4136 15.54290862    07
0 FLOCK 2E-10 0C79
1 83193U JSPOC2   16090.14667758  .00004140  00000+0  69340-4 0    03
2 83193 051.6426 092.2463 0002373 015.8435 069.4136 15.54290862    08
0 FLOCK 2E-8 0C82
1 83202U JSPOC2   16090.14667758  .00004140  00000+0  69340-4 0    04
2 83202 051.6426 092.2463 0002373 015.8435 069.4136 15.54290862    09
